#aV2023 10 15  0  0  0.00000000     288 DD+AD WGS84 FIT  NGA
## 2284      0.00000000   300.00000000 60232 0.0000000000000
+   32     1  2  3  4  5  6  7  8  9 10 11 12 13 14 15 16 17
+         18 19 20 21 22 23 24 25 26 27 28 29 30 31 32  0  0
+          0  0  0  0  0  0  0  0  0  0  0  0  0  0  0  0  0
+          0  0  0  0  0  0  0  0  0  0  0  0  0  0  0  0  0
+          0  0  0  0  0  0  0  0  0  0  0  0  0  0  0  0  0
++         2  2  2  2  2  2  2  2  2  2  2  2  2  2  2  2  2
++         2  2  2  2  2  2  2  2  2  2  2  2  2  2  2  0  0
++         0  0  0  0  0  0  0  0  0  0  0  0  0  0  0  0  0
++         0  0  0  0  0  0  0  0  0  0  0  0  0  0  0  0  0
++         0  0  0  0  0  0  0  0  0  0  0  0  0  0  0  0  0
%c cc cc ccc ccc cccc cccc cccc cccc ccccc ccccc ccccc ccccc
%c cc cc ccc ccc cccc cccc cccc cccc ccccc ccccc ccccc ccccc
%f  0.0000000  0.000000000  0.00000000000  0.000000000000000
%f  0.0000000  0.000000000  0.00000000000  0.000000000000000
%i    0    0    0    0      0      0      0      0         0
%i    0    0    0    0      0      0      0      0         0
/*      NGA, ST. LOUIS,MO.                                  
/*   EPHEMERIS COMPUTED FROM 2 DAYS OF DATA                 
/*   EPOCHA v8 SMOOTHER                                     
/*   G2139 IERS2010 SATIGS SATAPC                           
*  2023 10 15 22  5  0.00000000
P  1 -17709.231898 -14281.602133 -14328.459227    163.696422                    
V  1  17141.887579   3295.986373 -24748.116890     -0.004261                    
P  2 -12442.462108 -14470.210951 -18048.871493   -541.583311                    
V  2  23812.379269   2153.015872 -17477.026491      0.047398                    
P  3 -12293.289879 -22074.515779   8214.455017    -76.694442                    
V  3  -1125.750807 -10704.701181 -29812.996869      0.230649                    
P  4  -9884.662261 -11534.401945  21789.929123    185.452220                    
V  4  19795.134157 -19305.260937  -1362.816145      0.107876                    
P  5   4917.524521  25428.269932   5480.156044   -146.641945                    
V  5  -4851.085783  -5932.624831  30951.735047     -0.014594                    
P  6 -18383.417222   7438.586356  17782.851219    529.748204                    
V  6 -21418.877601  -6448.052734 -19427.330863     -0.084471                    
P  7 -26147.954351  -5898.210051   -501.763957     39.463731                    
V  7   -521.944738  -2940.777477  31214.024800     -0.102073                    
P  8  -1541.162674 -18422.065062 -18995.871345   -147.297326                    
V  8  17259.090629 -16919.505337  15467.384481     -0.019350                    
P  9 -17350.966102  -1782.020252  19958.743499    -31.405716                    
V  9  16259.007705 -19722.226495  12265.286138      0.107906                    
P 10  12957.186954  -7469.590668 -21735.109365    -57.475509                    
V 10   8478.339365  26709.383701  -4407.391595     -0.014808                    
P 11  -5803.294969  14011.395806  21819.373934   -416.706992                    
V 11 -26496.768822  -7901.713481  -2025.910343     -0.173225                    
P 12   9509.503350  24096.810742   5765.792117   -436.261388                    
V 12   -857.969659   8039.652596 -30649.551116     -0.042202                    
P 13  -8974.317937  20165.772132 -14813.962793    584.403268                    
V 13 -15692.062437  10045.302028  23705.320260      0.043171                    
P 14 -15045.539979   3694.261724 -21551.495083    215.040029                    
V 14  -7146.573845 -26522.629210    274.022906      0.110595                    
P 15   4962.090063  17922.326519 -19372.613530     87.452843                    
V 15 -14986.972360  18494.656575  13849.635177      0.037239                    
P 16   1905.777241 -24275.225072   9726.754992   -438.533550                    
V 16   5411.049503  12104.428271  28694.311954      0.060948                    
P 17 -21823.288518  11801.726869  -9205.364160    723.818020                    
V 17   7421.426235 -10018.645481 -28946.995546     -0.000731                    
P 18  26084.326114   4460.609022  -3226.041904   -449.878420                    
V 18   3399.961902   3151.728780  31592.232837     -0.117194                    
P 19 -20760.518230  16190.457702  -1729.407140    385.449848                    
V 19   -297.686303  -3392.022822 -32108.647649      0.052026                    
P 20  -2368.357371  21086.940141  16131.292694    406.638385                    
V 20 -10837.902099 -17345.844714  20953.706462     -0.019379                    
P 21  -9425.970591 -15102.026910 -19476.702473    146.681099                    
V 21  25432.722764   2874.047586 -13274.561332     -0.008717                    
P 22 -12037.419977  11576.702020 -20262.902854    102.245075                    
V 22  -6153.068647 -25982.189312 -10670.391032     -0.071921                    
P 23  16353.896918   6416.550794 -19967.732128     83.238612                    
V 23   7082.243751  24279.440494  13420.576287      0.058010                    
P 24  14041.492136  15017.526549 -17423.490196   -346.972805                    
V 24 -21342.680103  -1231.472419 -18257.810772     -0.098248                    
P 25  16055.828729  14218.562990  15519.364940    472.881486                    
V 25   4088.255322  19893.258811 -21739.039098      0.018295                    
P 26   7262.973905 -18041.533826  17805.950832    222.971917                    
V 26  10304.014560  20782.337830  17091.291040     -0.022598                    
P 27  10358.695140 -21883.580947 -10675.204579    -55.652237                    
V 27  10992.162891  -7950.169703  28029.514178     -0.057745                    
P 28  19840.103889  -7383.508475  16019.103433    -26.227638                    
V 28  19600.562447   5896.634210 -21524.905153     -0.069608                    
P 29  16988.767863   3072.551694  20169.580873   -610.065878                    
V 29 -18373.537706  17905.907348  12619.022108     -0.001823                    
P 30 -24416.921772   1981.078213 -10466.341827   -478.242667                    
V 30 -12338.416406  -6068.564526  27055.774213      0.036994                    
P 31  11850.926436 -11885.766219  20481.498871   -224.690336                    
V 31  25314.520879   7432.952604  -9825.765456     -0.004456                    
P 32  20413.406414 -15520.864860  -6304.201177   -573.121677                    
V 32  -3491.404528   8065.910980 -30497.940107     -0.052671                    
EOF
